EUTELSAT 8 WEST B       
1 40875U 15039B   26001.80878016 -.00000055  00000+0  00000+0 0  9998
2 40875   0.0640 350.8468 0004131 289.8790 103.8940  1.00271620 37983
EUTELSAT 9B             
1 41310U 16005A   26001.82200096  .00000071  00000+0  00000+0 0  9993
2 41310   0.0451  63.9866 0005018 215.6781 126.7021  1.00271534 36442
EUTELSAT 65 WEST A      
1 41382U 16014A   26001.80735421 -.00000266  00000+0  00000+0 0  9992
2 41382   0.0725 311.7730 0002690 333.7522  41.3558  1.00268236 35864
EUTELSAT 117 WEST B     
1 41589U 16038B   26001.48655590 -.00000001  00000+0  00000+0 0  9996
2 41589   0.0088 151.2831 0000446 255.9357 112.0981  1.00274404 34995
EUTELSAT 172B           
1 42741U 17029B   26001.78300073  .00000004  00000+0  00000+0 0  9996
2 42741   0.0353 128.1003 0000231 132.5428 294.6502  1.00270567 32064
EUTELSAT 7C             
1 44334U 19034B   26001.60766451  .00000059  00000+0  00000+0 0  9991
2 44334   0.0744 179.5158 0003550  86.6316  60.8368  1.00270360  5166
EUTELSAT 5 WEST B       
1 44624U 19067A   26001.81922762 -.00000032  00000+0  00000+0 0  9993
2 44624   0.0767 324.0493 0003477 315.4883 111.8413  1.00270540 22765
EUTELSAT KONNECT        
1 45027U 20005B   26001.75032719  .00000059  00000+0  00000+0 0  9990
2 45027   0.0712  93.4095 0001864 184.6102 100.6805  1.00269025 22662
